SCD 1                   
1 22490U 93009B   26179.57069769  .00000382  00000+0  53520-4 0  9993
2 22490  24.9683 137.2874 0041640 258.3912 263.5653 14.46122784762765
TECHSAT 1B (GO-32)      
1 25397U 98043D   26179.58423380  .00000050  00000+0  41977-4 0  9994
2 25397  99.0072 172.6305 0001621 141.9335 218.1958 14.24430518452956
SCD 2                   
1 25504U 98060A   26179.62354218  .00000373  00000+0  53176-4 0  9993
2 25504  24.9967   1.6319 0016560 243.7199 164.3227 14.45529867461982
DLR-TUBSAT              
1 25757U 99029B   26179.59142020  .00000088  00000+0  33403-4 0  9995
2 25757  98.6700 175.4708 0013415 319.3268  40.6924 14.52429518434902
TERRA                   
1 25994U 99068A   26179.60840635  .00000379  00000+0  86126-4 0  9993
2 25994  97.9451 228.7016 0002469 157.6806 354.8700 14.61111672411278
MAROC-TUBSAT            
1 27004U 01056D   26179.60278345 -.00000021  00000+0  29368-4 0  9990
2 27004  99.8086 356.6777 0020572 112.9575 264.3772 13.70262937227756
AQUA                    
1 27424U 02022A   26179.55153002  .00000741  00000+0  15714-3 0  9993
2 27424  98.4282 149.0617 0000735  68.6565 356.5379 14.62174378284930
SHIYAN-1 (SY-1)         
1 28220U 04012A   26179.20841284  .00012779  00000+0  39034-3 0  9992
2 28220  97.8697 257.9941 0004639 352.5730   7.5442 15.34036376212786
AURA                    
1 28376U 04026A   26179.62617482  .00000722  00000+0  15596-3 0  9998
2 28376  98.3422 136.1744 0001160  83.6068 276.5265 14.61345316167888
IRS-P5 (CARTOSAT-1)     
1 28649U 05017A   26179.62086230  .00001418  00000+0  14844-3 0  9991
2 28649  97.5305 202.1667 0002231  66.0284 294.1168 14.91077935145522
SINAH 1                 
1 28893U 05043D   26179.60347076  .00000307  00000+0  67727-4 0  9992
2 28893  98.2874 313.9934 0013357 237.6780 122.3129 14.64165017102192
RESURS-DK 1             
1 29228U 06021A   26179.53717052  .00002120  00000+0  12497-3 0  9997
2 29228  69.9339 310.1726 0006702 286.1533  73.8895 15.13262404104291
ARIRANG-2 (KOMPSAT-2)   
1 29268U 06031A   26179.63851146  .00000412  00000+0  85718-4 0  9995
2 29268  97.8306   3.5313 0015523  41.5336  46.8599 14.64667277 63151
LAPAN-TUBSAT            
1 29709U 07001A   26179.56710609  .00001124  00000+0  13514-3 0  9998
2 29709  98.1341 179.0477 0012892 142.9555 217.2552 14.85963811 52842
HAIYANG-1B              
1 31113U 07010A   26179.54179168  .00000084  00000+0  47620-4 0  9997
2 31113  98.3499 160.9468 0013785 162.5050 197.6612 14.31029580  2265
COSMO-SKYMED 1          
1 31598U 07023A   26179.63079051  .00002282  00000+0  20275-3 0  9996
2 31598  97.8858  11.5832 0001700  87.1396 273.0020 14.97160117 31505
TERRASAR-X              
1 31698U 07026A   26179.52106925  .00000485  00000+0  26294-4 0  9990
2 31698  97.4454 187.0670 0001870  88.3439 271.8010 15.19148456 54947
WORLDVIEW-1 (WV-1)      
1 32060U 07041A   26179.58300577  .00005266  00000+0  21782-3 0  9994
2 32060  97.3888 299.1636 0001202 333.1163  27.0012 15.24388131 44610
YAOGAN-3                
1 32289U 07055A   26179.60477120  .00001649  00000+0  17323-3 0  9991
2 32289  97.8149 209.3696 0001658  78.8994 281.2410 14.90822198  7575
COSMO-SKYMED 2          
1 32376U 07059A   26179.63783286  .00000391  00000+0  55696-4 0  9997
2 32376  97.8887   3.0697 0001330  89.6146 270.5220 14.82154241  3706
RADARSAT-2              
1 32382U 07061A   26179.65297370 -.00000125  00000+0 -31376-4 0  9999
2 32382  98.5775 186.4213 0001304  83.2527 276.8804 14.29983399967599
CARTOSAT-2A             
1 32783U 08021A   26179.61352747  .00000686  00000+0  98974-4 0  9994
2 32783  97.7632 227.9320 0013323  75.6750 284.5941 14.79254899980497
HUANJING 1A (HJ-1A)     
1 33320U 08041A   26179.62892475  .00000672  00000+0  86575-4 0  9991
2 33320  97.6680 165.0245 0020541  99.5981 260.7556 14.84009946960107
HUANJING 1B (HJ-1B)     
1 33321U 08041B   26179.60321851  .00001382  00000+0  17299-3 0  9990
2 33321  97.6517 168.1373 0037096 143.7106 216.6636 14.83337725960104
GEOEYE 1                
1 33331U 08042A   26179.56031332  .00000445  00000+0  92654-4 0  9997
2 33331  98.1335 253.3503 0005155  37.0442 323.1116 14.64635948951812
THEOS                   
1 33396U 08049A   26179.59406323 -.00000001  00000+0  19414-4 0  9996
2 33396  98.5571 236.5075 0001186  80.0535 280.0775 14.20134371919583
COSMO-SKYMED 3          
1 33412U 08054A   26179.63024521  .00003009  00000+0  20483-3 0  9999
2 33412  97.8266  38.3907 0014719 224.3215 135.6835 15.07016064958669
YAOGAN-4                
1 33446U 08061A   26179.56824950  .00000980  00000+0  12634-3 0  9994
2 33446  97.9307 112.9946 0015215  38.5476 321.6821 14.83221516947350
GOSAT (IBUKI)           
1 33492U 09002A   26179.59295807 -.00000058  00000+0 -17648-5 0  9997
2 33492  98.0898 290.5324 0001455  81.2904 278.8466 14.67539428933138
DEIMOS-1                
1 35681U 09041A   26179.58126899  .00000294  00000+0  50497-4 0  9993
2 35681  97.7407 336.3155 0002280 115.3306 244.8141 14.75247720908567
